GLOBALSTAR M057         
1 25943U 99058A   25222.30060198 -.00000102  00000+0 -80690-4 0  9995
2 25943  51.9959 194.6300 0002603 120.7136 239.3970 12.24827678173569
GLOBALSTAR M059         
1 25944U 99058B   25222.80591337 -.00000041  00000+0  56474-3 0  9998
2 25944  52.0023  59.4114 0001384  69.7228 302.8759 11.99981094169351
GLOBALSTAR M056         
1 25945U 99058C   25222.29246611 -.00000103  00000+0 -18611-3 0  9995
2 25945  51.9969  61.3717 0000525 350.9947 180.4630 12.04779849169144
GLOBALSTAR M031         
1 25946U 99058D   25222.58444942 -.00000061  00000+0  29434-3 0  9992
2 25946  51.9978 309.6507 0000826 279.5473 167.8886 12.16039337171165
GLOBALSTAR M039         
1 25961U 99062A   25222.64084150 -.00000054  00000+0  27534-3 0  9993
2 25961  51.9842 102.8611 0003174  97.8427 262.2800 12.62330526187090
GLOBALSTAR M034         
1 25962U 99062B   25222.54669851 -.00000071  00000+0  15188-3 0  9991
2 25962  51.9840 230.0848 0014084 144.4846   2.9651 11.79447664144805
GLOBALSTAR M061         
1 25964U 99062D   25222.47217365 -.00000098  00000+0 -29574-3 0  9998
2 25964  51.9802  55.0326 0006820  68.0426 301.2529 11.76775707127578
